STARLINK-5815           
1 55789U 23028BA  26068.73168480  .00000088  00000+0  15171-4 0  9992
2 55789  70.0005 204.3003 0003219 269.9017  90.1773 14.98334592167031
PE2_FLT2  (TYVAK-0262)  
1 59104U 24043G   26068.92472008  .00004105  00000+0  36572-3 0  9991
2 59104  97.8241 199.4452 0006851  28.1235 332.0355 14.96566721109803
